     2.100          NAVIGATION                              RINEX VERSION / TYPE
fic2rin                                 04/10/2015 00:13:58 PGM / RUN BY / DATE
                                                            END OF HEADER
19 15  4  9 20  0  0.0 -.506806187332D-03 -.125055521494D-11  .000000000000D+00
     .140000000000D+02 -.292812500000D+02  .420517516242D-08 -.943327382240D+00
    -.160560011864D-05  .111799621955D-01  .981055200100D-05  .515371434021D+04
     .417600000000D+06  .309199094772D-06 -.201124453526D+01  .447034835815D-07
     .968854483490D+00  .194718750000D+03  .527939696316D+00 -.787389940809D-08
     .106433004790D-09  .100000000000D+01  .183900000000D+04  .000000000000D+00
     .240000000000D+01  .000000000000D+00 -.149011611938D-07  .140000000000D+02
     .410406000000D+06  .400000000000D+01
20 15  4  9 20  0  0.0  .308587681502D-03  .386535248253D-11  .000000000000D+00
     .640000000000D+02 -.180000000000D+02  .543379776806D-08  .316005256144D+00
    -.925734639168D-06  .572103110608D-02  .751018524170D-05  .515578084946D+04
     .417600000000D+06 -.100582838058D-06 -.818808078757D-01  .260770320892D-07
     .926709397966D+00  .216687500000D+03  .122120933117D+01 -.851999774925D-08
    -.275725770799D-09  .100000000000D+01  .183900000000D+04  .000000000000D+00
     .240000000000D+01  .000000000000D+00 -.838190317154D-08  .640000000000D+02
     .410406000000D+06  .400000000000D+01
21 15  4  9 20  0  0.0 -.434952322394D-03 -.386535248253D-11  .000000000000D+00
     .540000000000D+02 -.225000000000D+01  .511949896197D-08  .240058148451D+01
    -.363215804100D-06  .224936369341D-01  .672601163387D-05  .515358210945D+04
     .417600000000D+06  .216066837311D-06 -.107290337032D+01 -.312924385071D-06
     .933445938227D+00  .231000000000D+03 -.192374850213D+01 -.799819029959D-08
     .241438628317D-09  .100000000000D+01  .183900000000D+04  .000000000000D+00
     .240000000000D+01  .000000000000D+00 -.116415321827D-07  .540000000000D+02
     .410406000000D+06  .400000000000D+01
22 15  4  9 20  0  0.0  .337902922183D-03  .420641299570D-11  .000000000000D+00
     .450000000000D+02 -.159062500000D+02  .556773191838D-08  .883767226898D+00
    -.813975930214D-06  .774300843477D-02  .754930078983D-05  .515369064903D+04
     .417600000000D+06 -.108033418655D-06 -.281014040448D-01  .745058059692D-08
     .923357567378D+00  .214843750000D+03 -.205922931034D+01 -.864178853661D-08
    -.306441335940D-09  .100000000000D+01  .183900000000D+04  .000000000000D+00
     .240000000000D+01  .000000000000D+00 -.176951289177D-07  .450000000000D+02
     .410406000000D+06  .400000000000D+01
23 15  4  9 20  0  0.0 -.100804027170D-03 -.250111042988D-11  .000000000000D+00
     .780000000000D+02  .720937500000D+02  .468840957679D-08 -.136629803820D+01
     .355392694473D-05  .995880668052D-02  .899285078049D-05  .515363805199D+04
     .417600000000D+06  .165775418282D-06  .104144780233D+01 -.106170773506D-06
     .948914945179D+00  .195906250000D+03 -.269928649527D+01 -.802962018020D-08
     .106433004790D-09  .100000000000D+01  .183900000000D+04  .000000000000D+00
     .240000000000D+01  .000000000000D+00 -.200234353542D-07  .780000000000D+02
     .410406000000D+06  .400000000000D+01
24 15  4  9 20  0  0.0 -.463575124741D-04 -.568434188608D-12  .000000000000D+00
     .360000000000D+02  .665937500000D+02  .494306304127D-08 -.210370961250D+01
     .333413481712D-05  .321801123209D-02  .435672700405D-05  .515368077087D+04
     .417600000000D+06  .577419996262D-07  .206879650492D+01 -.115483999252D-06
     .953698963790D+00  .291500000000D+03  .345823034677D+00 -.848428197583D-08
     .195365280605D-09  .100000000000D+01  .183900000000D+04  .000000000000D+00
     .240000000000D+01  .000000000000D+00  .232830643654D-08  .360000000000D+02
     .410406000000D+06  .400000000000D+01
25 15  4  9 20  0  0.0 -.182702206075D-04 -.341060513165D-11  .000000000000D+00
     .190000000000D+02 -.670312500000D+02  .423053336155D-08  .219486707796D+01
    -.361725687981D-05  .448128953576D-02  .527501106262D-05  .515370075035D+04
     .417600000000D+06 -.558793544769D-07  .313060834928D+01 -.149011611938D-07
     .978310847397D+00  .287625000000D+03  .689645218743D+00 -.803676333488D-08
    -.231795369493D-09  .100000000000D+01  .183900000000D+04  .000000000000D+00
     .240000000000D+01  .000000000000D+00  .512227416039D-08  .190000000000D+02
     .410406000000D+06  .400000000000D+01
26 15  4  9 20  0  0.0  .125700607896D-04  .106865627458D-10  .000000000000D+00
     .250000000000D+02 -.676562500000D+02  .463090718159D-08  .441025353059D+00
    -.331737101078D-05  .246379291639D-03  .505894422531D-05  .516599124908D+04
     .417600000000D+06  .651925802231D-07  .312876986941D+01  .372529029846D-07
     .960409879578D+00  .279437500000D+03  .144597295871D+01 -.818212653270D-08
    -.195008122871D-09  .100000000000D+01  .183900000000D+04  .000000000000D+00
     .240000000000D+01  .630000000000D+02  .838190317154D-08  .250000000000D+02
     .410406000000D+06  .400000000000D+01
27 15  4  9 20  0  0.0  .638402998447D-04  .261479726760D-11  .000000000000D+00
     .230000000000D+02 -.427500000000D+02  .421374694805D-08 -.535945114665D-01
    -.241771340370D-05  .227274151985D-02  .941939651966D-05  .515369324112D+04
     .417600000000D+06  .353902578354D-07 -.210850091059D+01  .316649675369D-07
     .966716377515D+00  .199875000000D+03  .152951934125D+00 -.791747265166D-08
     .582167106740D-10  .100000000000D+01  .183900000000D+04  .000000000000D+00
     .240000000000D+01  .000000000000D+00  .186264514923D-08  .230000000000D+02
     .410406000000D+06  .400000000000D+01
28 15  4  9 20  0  0.0  .431829132140D-03  .261479726760D-11  .000000000000D+00
     .690000000000D+02 -.779375000000D+02  .413910098160D-08  .662558128948D+00
    -.409409403801D-05  .195497850655D-01  .643916428089D-05  .515369438171D+04
     .417600000000D+06 -.270083546638D-06 -.308247934365D+01 -.111758708954D-07
     .988946962571D+00  .278343750000D+03 -.166560717122D+01 -.833963309348D-08
    -.360729311538D-09  .100000000000D+01  .183900000000D+04  .000000000000D+00
     .240000000000D+01  .000000000000D+00 -.111758708954D-07  .690000000000D+02
     .410406000000D+06  .400000000000D+01
29 15  4  9 20  0  0.0  .603335909545D-03  .227373675443D-11  .000000000000D+00
     .620000000000D+02 -.430000000000D+02  .403088218814D-08  .258990051463D+01
    -.224821269512D-05  .136914511677D-02  .100433826447D-04  .515378437042D+04
     .417600000000D+06 -.204890966415D-07 -.205169814809D+01  .111758708954D-07
     .972635275306D+00  .192218750000D+03 -.710001208869D+00 -.772817905253D-08
     .136791412197D-09  .100000000000D+01  .183900000000D+04  .000000000000D+00
     .240000000000D+01  .000000000000D+00 -.977888703346D-08  .620000000000D+02
     .410406000000D+06  .400000000000D+01
30 15  4  9 20  0  0.0 -.729579478502D-04  .363797880709D-11  .000000000000D+00
     .390000000000D+02  .563125000000D+02  .493520557112D-08 -.271566127673D+01
     .301003456116D-05  .119624496438D-02  .329501926899D-05  .515375508881D+04
     .417600000000D+06  .204890966415D-07  .215888071078D+01 -.465661287308D-07
     .956237047660D+00  .317250000000D+03  .283955385294D+01 -.844856620241D-08
     .150006248362D-09  .100000000000D+01  .183900000000D+04  .000000000000D+00
     .240000000000D+01  .000000000000D+00  .325962901115D-08  .390000000000D+02
     .410406000000D+06  .400000000000D+01
31 15  4  9 20  0  0.0  .319023150951D-03 -.102318153949D-11  .000000000000D+00
     .950000000000D+02  .511875000000D+02  .442911306177D-08 -.304879860851D+01
     .278465449810D-05  .817715574522D-02  .431202352047D-05  .515376232529D+04
     .417600000000D+06 -.122934579849D-06  .211640934332D+01  .108033418655D-06
     .975385602257D+00  .305062500000D+03 -.521533112839D+00 -.802819154926D-08
     .124648049234D-09  .100000000000D+01  .183900000000D+04  .000000000000D+00
     .240000000000D+01  .000000000000D+00 -.135041773319D-07  .950000000000D+02
     .410406000000D+06  .400000000000D+01
32 15  4  9 20  0  0.0 -.180132221431D-03  .943600753089D-11  .000000000000D+00
     .800000000000D+02 -.111250000000D+02  .479734268572D-08 -.239867490580D+01
    -.614672899246D-06  .112733008573D-01  .851415097713D-05  .515379333115D+04
     .417600000000D+06 -.182539224625D-06  .715740277455D-01 -.169500708580D-06
     .947460529580D+00  .209281250000D+03  .325027700994D-01 -.810140888477D-08
    -.202151277555D-09  .100000000000D+01  .183900000000D+04  .000000000000D+00
     .240000000000D+01  .000000000000D+00 -.372529029846D-08  .800000000000D+02
     .410406000000D+06  .400000000000D+01
 1 15  4  9 22  0  0.0 -.697560608387D-05  .454747350886D-12  .000000000000D+00
     .680000000000D+02  .459375000000D+01  .459483425043D-08 -.122452250123D+01
     .242143869400D-06  .405066821259D-02  .727362930775D-05  .515366328621D+04
     .424800000000D+06  .651925802231D-07 -.105140422236D+01 -.108033418655D-06
     .961787287170D+00  .241906250000D+03  .377361311665D+00 -.805212111745D-08
     .152149194768D-09  .100000000000D+01  .183900000000D+04  .000000000000D+00
     .240000000000D+01  .000000000000D+00  .558793544769D-08  .680000000000D+02
     .417606000000D+06  .400000000000D+01
 2 15  4  9 22  0  0.0  .558785162866D-03  .227373675443D-11  .000000000000D+00
     .590000000000D+02  .100625000000D+02  .533522223342D-08 -.741123467064D+00
     .661239027977D-06  .145938951755D-01  .674650073051D-05  .515379004669D+04
     .424800000000D+06  .130385160446D-06 -.108793209306D+01  .318512320518D-06
     .940390517143D+00  .240500000000D+03 -.228620088211D+01 -.860607276319D-08
     .203579908492D-09  .100000000000D+01  .183900000000D+04  .000000000000D+00
     .240000000000D+01  .000000000000D+00 -.204890966415D-07  .590000000000D+02
     .417606000000D+06  .400000000000D+01
